{
  "type": "FeatureCollection",
  "metadata": {
    "isSynthetic": true,
    "disclaimer": "Illustrative demo overlays. They are not operational jurisdiction boundaries."
  },
  "features": [
    {
      "type": "Feature",
      "properties": {
        "district": "Bagalkote",
        "overlay": "synthetic-demo-boundary"
      },
      "geometry": {
        "type": "Polygon",
        "coordinates": [
          [
            [
              75.52,
              16.05
            ],
            [
              75.92,
              16.05
            ],
            [
              75.92,
              16.330000000000002
            ],
            [
              75.52,
              16.330000000000002
            ],
            [
              75.52,
              16.05
            ]
          ]
        ]
      }
    },
    {
      "type": "Feature",
      "properties": {
        "district": "Ballari",
        "overlay": "synthetic-demo-boundary"
      },
      "geometry": {
        "type": "Polygon",
        "coordinates": [
          [
            [
              76.72,
              15
            ],
            [
              77.12,
              15
            ],
            [
              77.12,
              15.280000000000001
            ],
            [
              76.72,
              15.280000000000001
            ],
            [
              76.72,
              15
            ]
          ]
        ]
      }
    },
    {
      "type": "Feature",
      "properties": {
        "district": "Belagavi",
        "overlay": "synthetic-demo-boundary"
      },
      "geometry": {
        "type": "Polygon",
        "coordinates": [
          [
            [
              74.3,
              15.709999999999999
            ],
            [
              74.7,
              15.709999999999999
            ],
            [
              74.7,
              15.99
            ],
            [
              74.3,
              15.99
            ],
            [
              74.3,
              15.709999999999999
            ]
          ]
        ]
      }
    },
    {
      "type": "Feature",
      "properties": {
        "district": "Bengaluru Rural",
        "overlay": "synthetic-demo-boundary"
      },
      "geometry": {
        "type": "Polygon",
        "coordinates": [
          [
            [
              77.47,
              13.059999999999999
            ],
            [
              77.87,
              13.059999999999999
            ],
            [
              77.87,
              13.34
            ],
            [
              77.47,
              13.34
            ],
            [
              77.47,
              13.059999999999999
            ]
          ]
        ]
      }
    },
    {
      "type": "Feature",
      "properties": {
        "district": "Bengaluru Urban",
        "overlay": "synthetic-demo-boundary"
      },
      "geometry": {
        "type": "Polygon",
        "coordinates": [
          [
            [
              77.39,
              12.83
            ],
            [
              77.79,
              12.83
            ],
            [
              77.79,
              13.110000000000001
            ],
            [
              77.39,
              13.110000000000001
            ],
            [
              77.39,
              12.83
            ]
          ]
        ]
      }
    },
    {
      "type": "Feature",
      "properties": {
        "district": "Bidar",
        "overlay": "synthetic-demo-boundary"
      },
      "geometry": {
        "type": "Polygon",
        "coordinates": [
          [
            [
              77.35,
              17.77
            ],
            [
              77.75,
              17.77
            ],
            [
              77.75,
              18.05
            ],
            [
              77.35,
              18.05
            ],
            [
              77.35,
              17.77
            ]
          ]
        ]
      }
    },
    {
      "type": "Feature",
      "properties": {
        "district": "Chamarajanagar",
        "overlay": "synthetic-demo-boundary"
      },
      "geometry": {
        "type": "Polygon",
        "coordinates": [
          [
            [
              76.74,
              11.79
            ],
            [
              77.14,
              11.79
            ],
            [
              77.14,
              12.07
            ],
            [
              76.74,
              12.07
            ],
            [
              76.74,
              11.79
            ]
          ]
        ]
      }
    },
    {
      "type": "Feature",
      "properties": {
        "district": "Chikkaballapur",
        "overlay": "synthetic-demo-boundary"
      },
      "geometry": {
        "type": "Polygon",
        "coordinates": [
          [
            [
              77.53,
              13.299999999999999
            ],
            [
              77.93,
              13.299999999999999
            ],
            [
              77.93,
              13.58
            ],
            [
              77.53,
              13.58
            ],
            [
              77.53,
              13.299999999999999
            ]
          ]
        ]
      }
    },
    {
      "type": "Feature",
      "properties": {
        "district": "Chikkamagaluru",
        "overlay": "synthetic-demo-boundary"
      },
      "geometry": {
        "type": "Polygon",
        "coordinates": [
          [
            [
              75.57,
              13.18
            ],
            [
              75.97,
              13.18
            ],
            [
              75.97,
              13.46
            ],
            [
              75.57,
              13.46
            ],
            [
              75.57,
              13.18
            ]
          ]
        ]
      }
    },
    {
      "type": "Feature",
      "properties": {
        "district": "Chitradurga",
        "overlay": "synthetic-demo-boundary"
      },
      "geometry": {
        "type": "Polygon",
        "coordinates": [
          [
            [
              76.2,
              14.09
            ],
            [
              76.60000000000001,
              14.09
            ],
            [
              76.60000000000001,
              14.370000000000001
            ],
            [
              76.2,
              14.370000000000001
            ],
            [
              76.2,
              14.09
            ]
          ]
        ]
      }
    },
    {
      "type": "Feature",
      "properties": {
        "district": "Dakshina Kannada",
        "overlay": "synthetic-demo-boundary"
      },
      "geometry": {
        "type": "Polygon",
        "coordinates": [
          [
            [
              74.66,
              12.77
            ],
            [
              75.06,
              12.77
            ],
            [
              75.06,
              13.05
            ],
            [
              74.66,
              13.05
            ],
            [
              74.66,
              12.77
            ]
          ]
        ]
      }
    },
    {
      "type": "Feature",
      "properties": {
        "district": "Davanagere",
        "overlay": "synthetic-demo-boundary"
      },
      "geometry": {
        "type": "Polygon",
        "coordinates": [
          [
            [
              75.72,
              14.33
            ],
            [
              76.12,
              14.33
            ],
            [
              76.12,
              14.610000000000001
            ],
            [
              75.72,
              14.610000000000001
            ],
            [
              75.72,
              14.33
            ]
          ]
        ]
      }
    },
    {
      "type": "Feature",
      "properties": {
        "district": "Dharwad",
        "overlay": "synthetic-demo-boundary"
      },
      "geometry": {
        "type": "Polygon",
        "coordinates": [
          [
            [
              74.8,
              15.309999999999999
            ],
            [
              75.2,
              15.309999999999999
            ],
            [
              75.2,
              15.59
            ],
            [
              74.8,
              15.59
            ],
            [
              74.8,
              15.309999999999999
            ]
          ]
        ]
      }
    },
    {
      "type": "Feature",
      "properties": {
        "district": "Gadag",
        "overlay": "synthetic-demo-boundary"
      },
      "geometry": {
        "type": "Polygon",
        "coordinates": [
          [
            [
              75.42999999999999,
              15.29
            ],
            [
              75.83,
              15.29
            ],
            [
              75.83,
              15.57
            ],
            [
              75.42999999999999,
              15.57
            ],
            [
              75.42999999999999,
              15.29
            ]
          ]
        ]
      }
    },
    {
      "type": "Feature",
      "properties": {
        "district": "Hassan",
        "overlay": "synthetic-demo-boundary"
      },
      "geometry": {
        "type": "Polygon",
        "coordinates": [
          [
            [
              75.89999999999999,
              12.86
            ],
            [
              76.3,
              12.86
            ],
            [
              76.3,
              13.14
            ],
            [
              75.89999999999999,
              13.14
            ],
            [
              75.89999999999999,
              12.86
            ]
          ]
        ]
      }
    },
    {
      "type": "Feature",
      "properties": {
        "district": "Haveri",
        "overlay": "synthetic-demo-boundary"
      },
      "geometry": {
        "type": "Polygon",
        "coordinates": [
          [
            [
              75.2,
              14.66
            ],
            [
              75.60000000000001,
              14.66
            ],
            [
              75.60000000000001,
              14.940000000000001
            ],
            [
              75.2,
              14.940000000000001
            ],
            [
              75.2,
              14.66
            ]
          ]
        ]
      }
    },
    {
      "type": "Feature",
      "properties": {
        "district": "Kalaburagi",
        "overlay": "synthetic-demo-boundary"
      },
      "geometry": {
        "type": "Polygon",
        "coordinates": [
          [
            [
              76.63,
              17.189999999999998
            ],
            [
              77.03,
              17.189999999999998
            ],
            [
              77.03,
              17.47
            ],
            [
              76.63,
              17.47
            ],
            [
              76.63,
              17.189999999999998
            ]
          ]
        ]
      }
    },
    {
      "type": "Feature",
      "properties": {
        "district": "Kodagu",
        "overlay": "synthetic-demo-boundary"
      },
      "geometry": {
        "type": "Polygon",
        "coordinates": [
          [
            [
              75.53,
              12.28
            ],
            [
              75.93,
              12.28
            ],
            [
              75.93,
              12.56
            ],
            [
              75.53,
              12.56
            ],
            [
              75.53,
              12.28
            ]
          ]
        ]
      }
    },
    {
      "type": "Feature",
      "properties": {
        "district": "Kolar",
        "overlay": "synthetic-demo-boundary"
      },
      "geometry": {
        "type": "Polygon",
        "coordinates": [
          [
            [
              77.92999999999999,
              12.99
            ],
            [
              78.33,
              12.99
            ],
            [
              78.33,
              13.270000000000001
            ],
            [
              77.92999999999999,
              13.270000000000001
            ],
            [
              77.92999999999999,
              12.99
            ]
          ]
        ]
      }
    },
    {
      "type": "Feature",
      "properties": {
        "district": "Koppal",
        "overlay": "synthetic-demo-boundary"
      },
      "geometry": {
        "type": "Polygon",
        "coordinates": [
          [
            [
              75.95,
              15.209999999999999
            ],
            [
              76.35000000000001,
              15.209999999999999
            ],
            [
              76.35000000000001,
              15.49
            ],
            [
              75.95,
              15.49
            ],
            [
              75.95,
              15.209999999999999
            ]
          ]
        ]
      }
    },
    {
      "type": "Feature",
      "properties": {
        "district": "Mandya",
        "overlay": "synthetic-demo-boundary"
      },
      "geometry": {
        "type": "Polygon",
        "coordinates": [
          [
            [
              76.7,
              12.379999999999999
            ],
            [
              77.10000000000001,
              12.379999999999999
            ],
            [
              77.10000000000001,
              12.66
            ],
            [
              76.7,
              12.66
            ],
            [
              76.7,
              12.379999999999999
            ]
          ]
        ]
      }
    },
    {
      "type": "Feature",
      "properties": {
        "district": "Mysuru",
        "overlay": "synthetic-demo-boundary"
      },
      "geometry": {
        "type": "Polygon",
        "coordinates": [
          [
            [
              76.45,
              12.16
            ],
            [
              76.85000000000001,
              12.16
            ],
            [
              76.85000000000001,
              12.440000000000001
            ],
            [
              76.45,
              12.440000000000001
            ],
            [
              76.45,
              12.16
            ]
          ]
        ]
      }
    },
    {
      "type": "Feature",
      "properties": {
        "district": "Raichur",
        "overlay": "synthetic-demo-boundary"
      },
      "geometry": {
        "type": "Polygon",
        "coordinates": [
          [
            [
              77.14999999999999,
              16.07
            ],
            [
              77.55,
              16.07
            ],
            [
              77.55,
              16.35
            ],
            [
              77.14999999999999,
              16.35
            ],
            [
              77.14999999999999,
              16.07
            ]
          ]
        ]
      }
    },
    {
      "type": "Feature",
      "properties": {
        "district": "Ramanagara",
        "overlay": "synthetic-demo-boundary"
      },
      "geometry": {
        "type": "Polygon",
        "coordinates": [
          [
            [
              77.08,
              12.58
            ],
            [
              77.48,
              12.58
            ],
            [
              77.48,
              12.860000000000001
            ],
            [
              77.08,
              12.860000000000001
            ],
            [
              77.08,
              12.58
            ]
          ]
        ]
      }
    },
    {
      "type": "Feature",
      "properties": {
        "district": "Shivamogga",
        "overlay": "synthetic-demo-boundary"
      },
      "geometry": {
        "type": "Polygon",
        "coordinates": [
          [
            [
              75.36999999999999,
              13.79
            ],
            [
              75.77,
              13.79
            ],
            [
              75.77,
              14.07
            ],
            [
              75.36999999999999,
              14.07
            ],
            [
              75.36999999999999,
              13.79
            ]
          ]
        ]
      }
    },
    {
      "type": "Feature",
      "properties": {
        "district": "Tumakuru",
        "overlay": "synthetic-demo-boundary"
      },
      "geometry": {
        "type": "Polygon",
        "coordinates": [
          [
            [
              76.89999999999999,
              13.2
            ],
            [
              77.3,
              13.2
            ],
            [
              77.3,
              13.48
            ],
            [
              76.89999999999999,
              13.48
            ],
            [
              76.89999999999999,
              13.2
            ]
          ]
        ]
      }
    },
    {
      "type": "Feature",
      "properties": {
        "district": "Udupi",
        "overlay": "synthetic-demo-boundary"
      },
      "geometry": {
        "type": "Polygon",
        "coordinates": [
          [
            [
              74.55,
              13.2
            ],
            [
              74.95,
              13.2
            ],
            [
              74.95,
              13.48
            ],
            [
              74.55,
              13.48
            ],
            [
              74.55,
              13.2
            ]
          ]
        ]
      }
    },
    {
      "type": "Feature",
      "properties": {
        "district": "Uttara Kannada",
        "overlay": "synthetic-demo-boundary"
      },
      "geometry": {
        "type": "Polygon",
        "coordinates": [
          [
            [
              74.2,
              14.459999999999999
            ],
            [
              74.60000000000001,
              14.459999999999999
            ],
            [
              74.60000000000001,
              14.74
            ],
            [
              74.2,
              14.74
            ],
            [
              74.2,
              14.459999999999999
            ]
          ]
        ]
      }
    },
    {
      "type": "Feature",
      "properties": {
        "district": "Vijayapura",
        "overlay": "synthetic-demo-boundary"
      },
      "geometry": {
        "type": "Polygon",
        "coordinates": [
          [
            [
              75.52,
              16.689999999999998
            ],
            [
              75.92,
              16.689999999999998
            ],
            [
              75.92,
              16.97
            ],
            [
              75.52,
              16.97
            ],
            [
              75.52,
              16.689999999999998
            ]
          ]
        ]
      }
    },
    {
      "type": "Feature",
      "properties": {
        "district": "Yadgir",
        "overlay": "synthetic-demo-boundary"
      },
      "geometry": {
        "type": "Polygon",
        "coordinates": [
          [
            [
              76.92999999999999,
              16.63
            ],
            [
              77.33,
              16.63
            ],
            [
              77.33,
              16.91
            ],
            [
              76.92999999999999,
              16.91
            ],
            [
              76.92999999999999,
              16.63
            ]
          ]
        ]
      }
    }
  ]
}
